IRIDIUM 106             
1 41917U 17003A   25024.27368186  .00000196  00000+0  62881-4 0  9991
2 41917  86.3980 301.1921 0002277  90.4741 269.6715 14.34218753420266
IRIDIUM 103             
1 41918U 17003B   25024.26099476  .00000705  00000+0  24481-3 0  9993
2 41918  86.3980 301.0991 0001625  98.4106 261.7275 14.34217593420289
IRIDIUM 109             
1 41919U 17003C   25024.19757239 -.00000031  00000+0 -18207-4 0  9998
2 41919  86.3981 301.1767 0001798  80.1210 280.0188 14.34217097420240
IRIDIUM 102             
1 41920U 17003D   25024.16585935  .00000290  00000+0  96386-4 0  9998
2 41920  86.3978 301.1237 0002220  82.3174 277.8274 14.34217575420324
IRIDIUM 105             
1 41921U 17003E   25024.13659213  .00000642  00000+0  22226-3 0  9999
2 41921  86.3951 269.5558 0001972  87.2537 272.8885 14.34221308422176
IRIDIUM 104             
1 41922U 17003F   25024.17854332  .00000091  00000+0  25484-4 0  9991
2 41922  86.3981 301.1538 0001591  79.0606 281.0768 14.34217632420315
IRIDIUM 114             
1 41923U 17003G   25024.53371559  .00000180  00000+0  57190-4 0  9995
2 41923  86.3982 300.9908 0001941  89.9953 270.1465 14.34214353420342
IRIDIUM 108             
1 41924U 17003H   25024.42247979 -.00000278  00000+0 -10630-3 0  9999
2 41924  86.3944 269.3465 0002246  87.5933 272.5520 14.34213819422186
